ONEWEB-0446             
1 51640U 22012U   24156.82309794  .00000424  00000+0  11778-2 0  9998
2 51640  87.8951 183.8667 0001920  83.1510 276.9836 13.10376141113402
ONEWEB-0448             
1 51641U 22012V   24157.13352640  .00000575  00000+0  16114-2 0  9998
2 51641  87.8950 183.8061 0002187  95.1167 265.0210 13.10375053113403
ONEWEB-0449             
1 51642U 22012W   24157.52028300  .00000677  00000+0  19037-2 0  9995
2 51642  87.8942 183.7255 0001792  97.0959 263.0372 13.10373955113473
ONEWEB-0451             
1 51643U 22012X   24156.70443738  .00000022  00000+0  24278-4 0  9990
2 51643  87.9157 153.6479 0002074  93.5860 266.5509 13.17652042115884
ONEWEB-0452             
1 51644U 22012Y   24156.70285817 -.00000026  00000+0 -99718-4 0  9990
2 51644  87.9163 153.6876 0001895  97.9713 262.1633 13.17647063115896
ONEWEB-0456             
1 51646U 22012AA  24156.46123466  .00000469  00000+0  13068-2 0  9997
2 51646  87.8935 183.9075 0002344  87.8044 272.3352 13.10370191113365
ONEWEB-0457             
1 51647U 22012AB  24156.81977587  .00000272  00000+0  74354-3 0  9996
2 51647  87.8950 183.8575 0001618  93.2802 266.8510 13.10376244112125
ONEWEB-0458             
1 51648U 22012AC  24156.84136447  .00000616  00000+0  17285-2 0  9993
2 51648  87.8946 183.8688 0002097  98.2627 261.8738 13.10370897112088
